OBJECT B                
1 51825U 22019B   24204.77317299  .00018937  00000+0  80509-3 0  9994
2 51825  97.4272 275.7019 0015658 114.0413 246.2464 15.22967732132642
